{
    "links": {
        "self": "http://www.neowsapp.com/rest/v1/neo/3471358?api_key=iIulBulltgU6a56xZRHN4H3l9WmuAYTsLGpBGhQ2"
    },
    "id": "3471358",
    "neo_reference_id": "3471358",
    "name": "(2009 TV4)",
    "designation": "2009 TV4",
    "nasa_jpl_url": "http://ssd.jpl.nasa.gov/sbdb.cgi?sstr=3471358",
    "absolute_magnitude_h": 23.4,
    "estimated_diameter": {
        "kilometers": {
            "estimated_diameter_min": 0.0555334912,
            "estimated_diameter_max": 0.1241766613
        },
        "meters": {
            "estimated_diameter_min": 55.5334911581,
            "estimated_diameter_max": 124.1766612574
        },
        "miles": {
            "estimated_diameter_min": 0.0345069009,
            "estimated_diameter_max": 0.0771597762
        },
        "feet": {
            "estimated_diameter_min": 182.1964991311,
            "estimated_diameter_max": 407.4037573197
        }
    },
    "is_potentially_hazardous_asteroid": false,
    "close_approach_data": [
        {
            "close_approach_date": "2009-10-03",
            "close_approach_date_full": "2009-Oct-03 23:39",
            "epoch_date_close_approach": 1254613140000,
            "relative_velocity": {
                "kilometers_per_second": "6.2204780686",
                "kilometers_per_hour": "22393.7210470602",
                "miles_per_hour": "13914.5873917136"
            },
            "miss_distance": {
                "astronomical": "0.1043495852",
                "lunar": "40.5919886428",
                "kilometers": "15610475.681303524",
                "miles": "9699899.7980316712"
            },
            "orbiting_body": "Earth"
        }
    ],
    "orbital_data": {
        "orbit_id": "10",
        "orbit_determination_date": "2017-04-06 08:59:40",
        "first_observation_date": "2009-10-14",
        "last_observation_date": "2009-10-24",
        "data_arc_in_days": 10,
        "observations_used": 29,
        "orbit_uncertainty": "8",
        "minimum_orbit_intersection": ".0663416",
        "jupiter_tisserand_invariant": "4.129",
        "epoch_osculation": "2455121.5",
        "eccentricity": ".3696424414419677",
        "semi_major_axis": "1.689643227245054",
        "inclination": "7.585893869305727",
        "ascending_node_longitude": "354.0542753599071",
        "orbital_period": "802.215307300415",
        "perihelion_distance": "1.065079379560307",
        "perihelion_argument": "14.61470031658824",
        "aphelion_distance": "2.314207074929802",
        "perihelion_time": "2455110.421598536249",
        "mean_anomaly": "4.971513869975112",
        "mean_motion": ".4487573307613121",
        "equinox": "J2000",
        "orbit_class": {
            "orbit_class_type": "AMO",
            "orbit_class_description": "Near-Earth asteroid orbits similar to that of 1221 Amor",
            "orbit_class_range": "1.017 AU < q (perihelion) < 1.3 AU"
        }
    },
    "is_sentry_object": false
}